0 COSMOS 1563
1 15002U 84052E   13281.78627553  .00000009  00000-0  15939-3 0  3415
2 15002 074.0114 310.3757 0024207 173.4712 304.3880 12.51770514 74441
0 COSMOS 1563
1 15002U 84052E   13284.09986999  .00000021  00000-0  23995-3 0  3420
2 15002 074.0110 307.2874 0024163 169.9624 290.3351 12.51770555 74739
0 COSMOS 1563
1 15002U 84052E   13286.18061828  .00000005  00000-0  13649-3 0  3435
2 15002 074.0106 304.5097 0024135 166.7967 306.9977 12.51770880 74992
0 COSMOS 1563
1 15002U 84052E   13288.51015875 -.00000018  00000-0 -11579-4 0  3443
2 15002 074.0105 301.3996 0024091 163.2484 004.8207 12.51771147 75281
0 COSMOS 1563
1 15002U 84052E   13290.73619395 -.00000027  00000-0 -72496-4 0  3453
2 15002 074.0106 298.4277 0024048 159.8464 316.2221 12.51771140 75561
0 COSMOS 1563
1 15002U 84052E   13292.80243059 -.00000005  00000-0  68478-4 0  3464
2 15002 074.0109 295.6692 0024008 156.6786 267.5188 12.51770993 75826
0 COSMOS 1563
1 15002U 84052E   13295.20326100  .00000011  00000-0  17027-3 0  3470
2 15002 074.0109 292.4643 0023949 152.9550 286.6715 12.51770864 76127
